{
  "norad_id": 57121,
  "name": "STARLINK-6152",
  "history": [
    {
      "epoch": "2026-03-28T14:45:35.008992",
      "apogee_km": 559.6321253781507,
      "perigee_km": 558.6137356203535,
      "latitude_deg": -41.73642449542161,
      "longitude_deg": -48.86110112001188,
      "semi_major_axis_km": 6937.259930499252,
      "eccentricity": 7.34e-05,
      "inclination_deg": 43.0024,
      "raan_deg": 171.5182,
      "arg_perigee_deg": 234.7208,
      "mean_anomaly_deg": 125.3566,
      "mean_motion_rev_day": 15.02521901
    }
  ]
}